#dP2022  6  2  0  0  0.00000000      97 __u+U IGS14 FIT  IAC
## 2212 345600.00000000   900.00000000 59732 0.0000000000000
+  117   C06C07C08C09C10C11C12C13C14C16C19C20C21C22C23C24C25
+        C26C27C28C29C30C32C33C34C35C36C37C38C39C40C41C42C43
+        C44C45C46E01E02E03E04E05E07E08E09E10E11E12E13E14E15
+        E18E19E21E24E25E26E27E30E31E33E34E36G01G02G03G04G05
+        G06G07G08G09G10G11G12G13G14G15G16G17G18G19G20G21G22
+        G23G24G25G26G27G28G29G30G31G32J02J03R01R02R03R04R05
+        R07R08R09R11R12R13R14R15R17R18R19R20R21R22R24  0  0
++         7  7  8  7  7  6  6  8  7  7  5  5  5  5  6  5  6
++         5  6  6  5  6  6  6  6  5  6  6  8  7  7  6  6  6
++         5  6  6  4  4  5  4  4  4  4  4  4  4  4  4  4  4
++         5  4  4  4  4  4  4  4  4  4  4  4  3  3  3  3  4
++         3  3  3  3  3  3  4  3  3  4  4  4  3  4  3  3  3
++         3  3  3  3  3  4  3  3  4  3  9  9  6  6  6  6  6
++         6  6  6  6  6  7  6  6  6  6  7  7  6  7  6  0  0
%c M  cc GPS ccc cccc cccc cccc cccc ccccc ccccc ccccc ccccc
%c cc cc ccc ccc cccc cccc cccc cccc ccccc ccccc ccccc ccccc
%f  1.2500000  1.025000000  0.00000000000  0.000000000000000
%f  0.0000000  0.000000000  0.00000000000  0.000000000000000
%i    0    0    0    0      0      0      0      0         0
%i    0    0    0    0      0      0      0      0         0
/* INFORMATION & ANALYSIS CENTER (IAC)            FINAL DATA
/* S/V CLOCKS ARE ALIGNED TO GNSS TIME                      
/* G:C1WC2W R:C1PC2P E:C1XC5X C:C2IC6I J:C1CC2S             
/* PCV:IGS14_2196 OL/AL:FES2004  NONE     YN ORB:CoN CLK:CoN
*  2022 06 02 22  0  0.00000000
PC06 -17072.915973  34459.137834  17085.921100    110.255884
PC07  -3080.011209  37169.863766  19833.927886   -247.971924
PC08  -7631.107952  19616.515026 -36545.000330    343.984182
PC09 -11077.213732  33077.712971  23690.567260   -846.354343
PC10   3622.994017  39989.065279  13923.701187    128.783214
PC11  19678.221125 -19691.459757  -1635.062052    390.628103
PC12  20928.018429  -6043.959152 -17406.388435   -605.727111
PC13   -174.081653  22518.386202 -35498.362694    -14.950834
PC14   9709.623185 -15851.392763  20817.644952    491.016664
PC16 -19883.242097  34303.930642  14151.432563    136.799203
PC19  -2879.670321  23294.316625 -15084.978696    863.115402
PC20 -13888.172670   7864.748043 -22876.318412   -941.571724
PC21  17256.086439  13411.888431  17389.303153   -409.752438
PC22  10202.537620  25935.580201   1747.887842   -966.282317
PC23 -11780.041986 -16441.633338 -19217.356756   -931.807634
PC24  25240.254087  -3320.609840 -11412.524312   -972.641474
PC25   8249.053769 -14729.114123 -22222.724242   -727.554492
PC26  26400.807559   7824.676283   4412.407635    728.999634
PC27 -17429.663116  -2932.315045  21567.087047    732.930722
PC28  -3173.591526 -18176.176630  20932.305644     74.034867
PC29 -12713.867079  23642.540778  -7632.796807    563.122575
PC30 -21434.751544  14478.822470  10433.195586    499.375657
PC32 -17338.287267 -13306.399930 -17322.986793   -965.808999
PC33   2873.344282 -23230.141088  15185.025878   -967.451003
PC34  21367.587772 -15237.669342  -9536.429888   -389.554442
PC35   2934.510376  18755.218041 -20455.859416    302.773261
PC36  -9190.927336  14344.878994  22128.584153   -966.121815
PC37 -25798.117163  -9123.011429  -5505.401607   -908.440558
PC38 -16354.035398  19312.545961 -33731.875873      0.405246
PC39 -22501.203354  34690.380972   7834.183022     34.988109
PC40  -7112.510439  33878.674974  24183.856410    274.228504
PC41  -9956.069367 -26035.975465  -1191.992407   -968.064855
PC42  14441.781426  -6692.244807  22967.306064   -964.878015
PC43  13311.793442 -23540.191270   6920.268356   -920.447403
PC44  17549.210951   2574.859851 -21567.345864    679.801354
PC45  12099.061422  16296.093711  19149.502618    773.327748
PC46 -24484.061195   4308.389134  12716.521688   -358.120625
PE01   4124.589432  21512.051656  19909.588393   -488.635536
PE02  -4303.157541 -21576.495569 -19809.704296    303.178111
PE03   3183.971823 -29239.454897  -3253.162035   -564.761530
PE04   9852.400973  20388.881182  19077.269316  -1041.551976
PE05  14610.597115 -21065.735282  14801.351113   -175.790353
PE07 -17356.713809    791.804983 -23953.960817   -674.666295
PE08  -9942.383848 -20117.786088 -19288.129365   -539.864055
PE09  17228.705517   -934.188757  24058.655424   -539.941065
PE10  23156.897952   4022.537561 -18006.026389   -517.117698
PE11  27873.030633  -3396.367846  -9411.671017   3476.823253
PE12  15099.600011  10608.240088 -23156.937949   4582.557081
PE13 -27669.688745   2998.708725  10062.120323    429.064457
PE14 -10390.289725  28168.083249   -244.918165  -1819.271491
PE15 -14926.988155 -10600.024982  23255.931890    741.814931
PE18  16344.551391 -18882.964690  -9938.114910  -1375.398641
PE19  -4914.677512  29175.802023    922.092539  -5486.430255
PE21 -13363.519741  10307.975888  24316.408984   -737.869287
PE24  24542.425620   8563.105256 -14155.661634   -649.300700
PE25  13592.056246 -10078.769286 -24281.413397   -576.185703
PE26 -23505.143187  15106.850027  -9771.975180  -1217.347619
PE27 -24353.732799  -7504.670689  15065.794048   -313.147260
PE30 -20284.691956 -21211.264964  -3899.174072   -561.046793
PE31  20905.952388  20743.604422   2978.342399   -497.638039
PE33  -6535.002511  17873.169854 -22670.984794   -456.023336
PE34   6300.982509 -17859.912293  22735.345499   -520.201453
PE36  24080.614374 -14727.678590   8926.278541   -382.560148
PG01   4196.650662  14186.296733 -22368.779010    349.506352
PG02  17630.737373 -15252.398596  13518.049423   -652.986455
PG03  10790.348209  22053.854734 -10389.749913   -265.901530
PG04    655.839163  23642.868834  12005.567413   -161.115719
PG05   2450.767859 -17165.714773  19910.134450    -84.113476
PG06  25973.205738  -5765.724625     37.118970    327.917899
PG07  20030.352614   7580.296279  16424.593518    322.132402
PG08  -4651.728639  25691.523946  -3738.737987    -70.544101
PG09   9130.317931  16342.503242  18763.273887   -331.721614
PG10 -20783.381790  -7650.874283 -14729.510336   -439.329720
PG11  19380.781768 -12538.991869  13115.849380    -18.230420
PG12  -5854.158431 -22253.962707 -13631.407775   -225.109925
PG13  13239.101582 -22610.015996   3580.464875    322.847589
PG14  20785.396065   9050.081790 -13915.942269   -110.585880
PG15    904.514253 -26014.887011  -4776.829645    -56.315033
PG16  -8601.640552  12781.539379  21303.379976   -506.004987
PG17  15605.767267  -1240.375509 -21033.101928    620.278188
PG18 -19352.199664  -7582.892667  16592.130775    153.099273
PG19  17268.965603  -9016.843757 -18212.481512    165.556822
PG20  12221.577837 -10043.833427  21316.802770    513.360286
PG21  -6500.352226  16130.839401 -19229.157541    161.271810
PG22 -16899.307416  12353.045504 -15825.654963    269.355564
PG23 -20735.688684 -15742.697002  -5546.218546    -25.773919
PG24   -421.140991 -16300.739315 -21215.696321    229.048545
PG25 -17394.032239 -20223.250599  -1642.303229    332.558508
PG26 -16799.834125   4284.825094  20110.539032    209.824907
PG27 -12519.611489  21619.525785   8195.726551    211.479579
PG28  17577.303206   1131.366381 -19296.950095    346.033930
PG29  -7291.765050 -16679.975494  19262.027099   -520.103061
PG30  25383.647777    925.014368   8283.785273   -530.125683
PG31 -25795.109552   6897.375216   2339.363873   -180.201346
PG32 -16240.941370   4139.016015 -20412.312730   -141.766040
PJ02 -25990.694801  21741.995541  30111.542820     -0.418409
PJ03 -34195.234414  24498.498792   2114.919339     -2.583031
PR01  -9903.002058 -19181.676336 -13570.327722      9.403480
PR02 -10948.983526   -152.942018 -22993.258331    520.205514
PR03  -5739.427141  17667.878807 -17405.394566     57.744682
PR04   2546.405959  25276.518361  -2230.841002    144.533986
PR05   9354.568399  19019.167760  14193.480371     93.938414
PR07   5464.505221 -18289.435196  16987.574565     35.915556
PR08  -2622.788230 -25292.230494   2235.334303    -65.486086
PR09  23334.351333   3534.673886  -9759.042286     58.412971
PR11  -5464.725351 -12848.282249 -21332.007616     37.325419
PR12 -20977.655010 -12194.020170  -7866.276846     18.722502
PR13 -23582.646828  -4474.137463   8615.376597    -23.151325
PR14 -11870.461636   6627.214493  21591.871576     25.418173
PR15   6182.718992  13205.342802  20951.972876     95.681501
PR17 -18751.196320  16896.576425  -3815.903930    531.511180
PR18  -7381.377328  16087.076485 -18336.554540    118.972492
PR19   6651.700224   7954.289978 -23312.258808   -191.296639
PR20  20182.789193  -7012.489002 -13966.899027    -71.837866
PR21  18144.083978 -17098.311201   5329.422123   -306.280117
PR22   6892.901260 -15800.795786  18822.157598   -187.105766
PR24 -20356.907426   7758.339205  13288.866332     96.789766
EOF
